METEOR-M 2              
1 40069U 14037A   21323.51866281 -.00000002  00000-0  18258-4 0  9993
2 40069  98.4493 345.7413 0005049 201.3633 158.7338 14.20691923382051
